NUSAT-49 (KLARA DAN VO*)
1 60500U 24149AJ  26068.79810190  .00012912  00000+0  43568-3 0  9991
2 60500  97.3807 150.7380 0001132 286.7761  73.3356 15.30828857 86935
STARLINK-34711          
1 64912U 25157J   26068.04733906  .00017619  00000+0  60583-3 0  9994
2 64912  53.1607 348.7835 0001186  85.5411 274.5725 15.30186348 36026
